start=new Date('2022-08-08T00:00:00.000Z').valueOf();
sats=[{"ELEMENT_SET_NO":"999","SITE":"AFETR","BSTAR":"0.00008698200000","EPHEMERIS_TYPE":"0","RA_OF_ASC_NODE":"332.3003","OBJECT_TYPE":"PAYLOAD","APOAPSIS":"548.179","NORAD_CAT_ID":"47734","PERIOD":"95.592","CENTER_NAME":"EARTH","LAUNCH_DATE":"2021-03-04","MEAN_MOTION":"15.06401680","TIME_SYSTEM":"UTC","TLE_LINE2":"2 47734  53.0564 332.3003 0001401  91.5579 268.5571 15.06401680 80302","REF_FRAME":"TEME","GP_ID":"209793183","ECCENTRICITY":"0.00014010","MEAN_ANOMALY":"268.5571","EPOCH":"2022-08-07T17:19:11.133696","PERIAPSIS":"546.238","MEAN_ELEMENT_THEORY":"SGP4","CLASSIFICATION_TYPE":"U","OBJECT_ID":"2021-017N","MEAN_MOTION_DDOT":"0.0000000000000","MEAN_MOTION_DOT":"0.00001014","SEMIMAJOR_AXIS":"6925.343","RCS_SIZE":"LARGE","REV_AT_EPOCH":"8030","DECAY_DATE":null,"INCLINATION":"53.0564","COUNTRY_CODE":"US","OBJECT_NAME":"STARLINK-2144","ARG_OF_PERICENTER":"91.5579","TLE_LINE1":"1 47734U 21017N   22219.72165664  .00001014  00000-0  86982-4 0  9992","FILE":"3531552"},{"EPHEMERIS_TYPE":"0","RA_OF_ASC_NODE":"257.0975","SITE":"AFETR","BSTAR":"-0.00000759820000","ELEMENT_SET_NO":"999","LAUNCH_DATE":"2021-03-04","PERIOD":"95.593","CENTER_NAME":"EARTH","NORAD_CAT_ID":"47735","APOAPSIS":"548.339","OBJECT_TYPE":"PAYLOAD","TIME_SYSTEM":"UTC","MEAN_MOTION":"15.06390824","REF_FRAME":"TEME","TLE_LINE2":"2 47735  53.0547 257.0975 0001584  62.3264 297.7885 15.06390824 81348","MEAN_ELEMENT_THEORY":"SGP4","PERIAPSIS":"546.145","EPOCH":"2022-08-07T19:17:59.259840","GP_ID":"209793423","MEAN_ANOMALY":"297.7885","ECCENTRICITY":"0.00015840","RCS_SIZE":"LARGE","SEMIMAJOR_AXIS":"6925.377","MEAN_MOTION_DOT":"-0.00000395","MEAN_MOTION_DDOT":"0.0000000000000","OBJECT_ID":"2021-017P","CLASSIFICATION_TYPE":"U","ARG_OF_PERICENTER":"62.3264","COUNTRY_CODE":"US","OBJECT_NAME":"STARLINK-2146","INCLINATION":"53.0547","DECAY_DATE":null,"REV_AT_EPOCH":"8134","FILE":"3531552","TLE_LINE1":"1 47735U 21017P   22219.80415810 -.00000395  00000-0 -75982-5 0  9995"},{"REF_FRAME":"TEME","TLE_LINE2":"2 47736  53.0558 322.4478 0001370  85.1917 274.9228 15.06397371 80472","TIME_SYSTEM":"UTC","MEAN_MOTION":"15.06397371","APOAPSIS":"548.170","NORAD_CAT_ID":"47736","OBJECT_TYPE":"PAYLOAD","LAUNCH_DATE":"2021-03-04","PERIOD":"95.592","CENTER_NAME":"EARTH","ELEMENT_SET_NO":"999","EPHEMERIS_TYPE":"0","RA_OF_ASC_NODE":"322.4478","BSTAR":"0.00007141500000","SITE":"AFETR","FILE":"3531552","TLE_LINE1":"1 47736U 21017Q   22219.68940432  .00000782  00000-0  71415-4 0  9999","DECAY_DATE":null,"REV_AT_EPOCH":"8047","ARG_OF_PERICENTER":"85.1917","INCLINATION":"53.0558","COUNTRY_CODE":"US","OBJECT_NAME":"STARLINK-2147","MEAN_MOTION_DDOT":"0.0000000000000","OBJECT_ID":"2021-017Q","CLASSIFICATION_TYPE":"U","RCS_SIZE":"LARGE","SEMIMAJOR_AXIS":"6925.357","MEAN_MOTION_DOT":"0.00000782","EPOCH":"2022-08-07T16:32:44.533248","GP_ID":"209792186","MEAN_ANOMALY":"274.9228","ECCENTRICITY":"0.00013700","MEAN_ELEMENT_THEORY":"SGP4","PERIAPSIS":"546.273"},{"EPOCH":"2022-08-07T17:51:23.989824","MEAN_ANOMALY":"311.0467","GP_ID":"209792937","ECCENTRICITY":"0.00021500","PERIAPSIS":"473.260","MEAN_ELEMENT_THEORY":"SGP4","OBJECT_ID":"2021-017R","MEAN_MOTION_DDOT":"0.0000000000000","CLASSIFICATION_TYPE":"U","RCS_SIZE":"LARGE","SEMIMAJOR_AXIS":"6852.868","MEAN_MOTION_DOT":"-0.00001845","REV_AT_EPOCH":"8178","DECAY_DATE":null,"COUNTRY_CODE":"US","INCLINATION":"53.0517","OBJECT_NAME":"STARLINK-2148","ARG_OF_PERICENTER":"49.0718","TLE_LINE1":"1 47737U 21017R   22219.74402766 -.00001845  00000-0 -49882-4 0  9996","FILE":"3531552","ELEMENT_SET_NO":"999","EPHEMERIS_TYPE":"0","RA_OF_ASC_NODE":"229.5630","BSTAR":"-0.00004988200000","SITE":"AFETR","NORAD_CAT_ID":"47737","APOAPSIS":"476.207","OBJECT_TYPE":"PAYLOAD","LAUNCH_DATE":"2021-03-04","CENTER_NAME":"EARTH","PERIOD":"94.095","MEAN_MOTION":"15.30361989","TIME_SYSTEM":"UTC","REF_FRAME":"TEME","TLE_LINE2":"2 47737  53.0517 229.5630 0002150  49.0718 311.0467 15.30361989 81786"},{"ARG_OF_PERICENTER":"72.1551","OBJECT_NAME":"STARLINK-2149","COUNTRY_CODE":"US","INCLINATION":"53.0549","DECAY_DATE":null,"REV_AT_EPOCH":"8046","FILE":"3531552","TLE_LINE1":"1 47738U 21017S   22219.66363920  .00001258  00000-0  10334-3 0  9991","MEAN_ELEMENT_THEORY":"SGP4","PERIAPSIS":"546.384","EPOCH":"2022-08-07T15:55:38.426880","GP_ID":"209793684","ECCENTRICITY":"0.00012170","MEAN_ANOMALY":"287.9570","RCS_SIZE":"LARGE","MEAN_MOTION_DOT":"0.00001258","SEMIMAJOR_AXIS":"6925.362","MEAN_MOTION_DDOT":"0.0000000000000","OBJECT_ID":"2021-017S","CLASSIFICATION_TYPE":"U","TIME_SYSTEM":"UTC","MEAN_MOTION":"15.06395562","REF_FRAME":"TEME","TLE_LINE2":"2 47738  53.0549 322.8213 0001217  72.1551 287.9570 15.06395562 80468","EPHEMERIS_TYPE":"0","RA_OF_ASC_NODE":"322.8213","BSTAR":"0.00010334000000","SITE":"AFETR","ELEMENT_SET_NO":"999","LAUNCH_DATE":"2021-03-04","CENTER_NAME":"EARTH","PERIOD":"95.592","APOAPSIS":"548.070","NORAD_CAT_ID":"47738","OBJECT_TYPE":"PAYLOAD"},{"BSTAR":"0.00011775000000","SITE":"AFETR","EPHEMERIS_TYPE":"0","RA_OF_ASC_NODE":"346.8755","ELEMENT_SET_NO":"999","PERIOD":"95.592","CENTER_NAME":"EARTH","LAUNCH_DATE":"2021-03-04","OBJECT_TYPE":"PAYLOAD","NORAD_CAT_ID":"47739","APOAPSIS":"548.395","MEAN_MOTION":"15.06409629","TIME_SYSTEM":"UTC","TLE_LINE2":"2 47739  53.0550 346.8755 0001749 108.2686 251.8494 15.06409629 80148","REF_FRAME":"TEME","PERIAPSIS":"545.973","MEAN_ELEMENT_THEORY":"SGP4","GP_ID":"209793924","MEAN_ANOMALY":"251.8494","ECCENTRICITY":"0.00017490","EPOCH":"2022-08-07T19:37:50.562048","MEAN_MOTION_DOT":"0.00001473","SEMIMAJOR_AXIS":"6925.319","RCS_SIZE":"LARGE","CLASSIFICATION_TYPE":"U","OBJECT_ID":"2021-017T","MEAN_MOTION_DDOT":"0.0000000000000","OBJECT_NAME":"STARLINK-2150","COUNTRY_CODE":"US","INCLINATION":"53.0550","ARG_OF_PERICENTER":"108.2686","REV_AT_EPOCH":"8014","DECAY_DATE":null,"TLE_LINE1":"1 47739U 21017T   22219.81794632  .00001473  00000-0  11775-3 0  9996","FILE":"3531552"},{"MEAN_MOTION":"15.06401134","TIME_SYSTEM":"UTC","TLE_LINE2":"2 47740  53.0566 331.9530 0001225  74.7532 285.3593 15.06401134 79669","REF_FRAME":"TEME","ELEMENT_SET_NO":"999","BSTAR":"0.00011418000000","SITE":"AFETR","EPHEMERIS_TYPE":"0","RA_OF_ASC_NODE":"331.9530","OBJECT_TYPE":"PAYLOAD","APOAPSIS":"548.058","NORAD_CAT_ID":"47740","PERIOD":"95.592","CENTER_NAME":"EARTH","LAUNCH_DATE":"2021-03-04","REV_AT_EPOCH":"7966","DECAY_DATE":null,"INCLINATION":"53.0566","COUNTRY_CODE":"US","OBJECT_NAME":"STARLINK-2152","ARG_OF_PERICENTER":"74.7532","TLE_LINE1":"1 47740U 21017U   22219.79905690  .00001420  00000-0  11418-3 0  9999","FILE":"3531421","GP_ID":"209769085","MEAN_ANOMALY":"285.3593","ECCENTRICITY":"0.00012250","EPOCH":"2022-08-07T19:10:38.516160","PERIAPSIS":"546.362","MEAN_ELEMENT_THEORY":"SGP4","CLASSIFICATION_TYPE":"U","OBJECT_ID":"2021-017U","MEAN_MOTION_DDOT":"0.0000000000000","SEMIMAJOR_AXIS":"6925.345","MEAN_MOTION_DOT":"0.00001420","RCS_SIZE":"LARGE"},{"CLASSIFICATION_TYPE":"U","OBJECT_ID":"2021-017V","MEAN_MOTION_DDOT":"0.0000000000000","SEMIMAJOR_AXIS":"6925.348","MEAN_MOTION_DOT":"0.00002413","RCS_SIZE":"LARGE","ECCENTRICITY":"0.00013460","GP_ID":"209762019","MEAN_ANOMALY":"271.1677","EPOCH":"2022-08-07T13:09:43.495776","PERIAPSIS":"546.281","MEAN_ELEMENT_THEORY":"SGP4","TLE_LINE1":"1 47741U 21017V   22219.54842009  .00002413  00000-0  18086-3 0  9998","FILE":"3531314","REV_AT_EPOCH":"8026","DECAY_DATE":null,"COUNTRY_CODE":"US","INCLINATION":"53.0557","OBJECT_NAME":"STARLINK-2154","ARG_OF_PERICENTER":"88.9466","OBJECT_TYPE":"PAYLOAD","APOAPSIS":"548.146","NORAD_CAT_ID":"47741","PERIOD":"95.592","CENTER_NAME":"EARTH","LAUNCH_DATE":"2021-03-04","ELEMENT_SET_NO":"999","BSTAR":"0.00018086000000","SITE":"AFETR","EPHEMERIS_TYPE":"0","RA_OF_ASC_NODE":"333.0810","TLE_LINE2":"2 47741  53.0557 333.0810 0001346  88.9466 271.1677 15.06400046 80266","REF_FRAME":"TEME","MEAN_MOTION":"15.06400046","TIME_SYSTEM":"UTC"},{"TIME_SYSTEM":"UTC","MEAN_MOTION":"15.06394774","REF_FRAME":"TEME","TLE_LINE2":"2 47742  53.0556 322.4266 0001207  87.3652 272.7475 15.06394774 80475","EPHEMERIS_TYPE":"0","RA_OF_ASC_NODE":"322.4266","SITE":"AFETR","BSTAR":"0.00008501700000","ELEMENT_SET_NO":"999","LAUNCH_DATE":"2021-03-04","CENTER_NAME":"EARTH","PERIOD":"95.592","APOAPSIS":"548.065","NORAD_CAT_ID":"47742","OBJECT_TYPE":"PAYLOAD","ARG_OF_PERICENTER":"87.3652","COUNTRY_CODE":"US","INCLINATION":"53.0556","OBJECT_NAME":"STARLINK-2156","DECAY_DATE":null,"REV_AT_EPOCH":"8047","FILE":"3531552","TLE_LINE1":"1 47742U 21017W   22219.69309339  .00000985  00000-0  85017-4 0  9990","MEAN_ELEMENT_THEORY":"SGP4","PERIAPSIS":"546.394","EPOCH":"2022-08-07T16:38:03.268896","MEAN_ANOMALY":"272.7475","GP_ID":"209793184","ECCENTRICITY":"0.00012070","RCS_SIZE":"LARGE","SEMIMAJOR_AXIS":"6925.365","MEAN_MOTION_DOT":"0.00000985","MEAN_MOTION_DDOT":"0.0000000000000","OBJECT_ID":"2021-017W","CLASSIFICATION_TYPE":"U"},{"CLASSIFICATION_TYPE":"U","MEAN_MOTION_DDOT":"0.0000000000000","OBJECT_ID":"2021-017X","MEAN_MOTION_DOT":"-0.00000878","SEMIMAJOR_AXIS":"6925.370","RCS_SIZE":"LARGE","GP_ID":"209793424","ECCENTRICITY":"0.00013620","MEAN_ANOMALY":"281.1742","EPOCH":"2022-08-07T14:04:07.782816","MEAN_ELEMENT_THEORY":"SGP4","PERIAPSIS":"546.292","FILE":"3531552","TLE_LINE1":"1 47743U 21017X   22219.58620119 -.00000878  00000-0 -40071-4 0  9995","DECAY_DATE":null,"REV_AT_EPOCH":"8043","ARG_OF_PERICENTER":"78.9400","OBJECT_NAME":"STARLINK-2157","COUNTRY_CODE":"US","INCLINATION":"53.0539","OBJECT_TYPE":"PAYLOAD","NORAD_CAT_ID":"47743","APOAPSIS":"548.178","CENTER_NAME":"EARTH","PERIOD":"95.593","LAUNCH_DATE":"2021-03-04","ELEMENT_SET_NO":"999","SITE":"AFETR","BSTAR":"-0.00004007100000","EPHEMERIS_TYPE":"0","RA_OF_ASC_NODE":"322.9161","TLE_LINE2":"2 47743  53.0539 322.9161 0001362  78.9400 281.1742 15.06392922 80435","REF_FRAME":"TEME","TIME_SYSTEM":"UTC","MEAN_MOTION":"15.06392922"}];
